{
  "type": "FeatureCollection",
  "features": [
    {
      "type": "Feature",
      "properties": {
        "norad_id": 34070,
        "name": "COSMOS 2251 DEB",
        "group": "cosmos-2251-debris",
        "lat": 73.89056852854063,
        "lon": -141.37350932813303,
        "alt_km": 642.825976919492,
        "timestamp": "2025-12-09T18:55:17.625367+00:00",
        "meta_object_name": "COSMOS 2251 DEB",
        "meta_object_id": "1993-036KH",
        "meta_epoch": "2025-12-09T10:37:55.747776",
        "meta_mean_motion": 14.76829332,
        "meta_eccentricity": 0.00189349,
        "meta_inclination": 74.0009,
        "meta_ra_of_asc_node": 122.7416,
        "meta_arg_of_pericenter": 238.1647,
        "meta_mean_anomaly": 178.2185,
        "meta_ephemeris_type": 0,
        "meta_classification_type": "U",
        "meta_norad_cat_id": 34070,
        "meta_element_set_no": 999,
        "meta_rev_at_epoch": 88562,
        "meta_bstar": 0.0038205321,
        "meta_mean_motion_dot": 0.00026978,
        "meta_mean_motion_ddot": 0,
        "tle_line1": "1 34070U 93036KH  25343.44300634  .00026978  00000+0  38205-2 0  9997",
        "tle_line2": "2 34070  74.0009 122.7416 0018934 238.1647 178.2185 14.76829332885621"
      },
      "geometry": {
        "type": "Point",
        "coordinates": [
          -141.37350932813303,
          73.89056852854063
        ]
      }
    },
    {
      "type": "Feature",
      "properties": {
        "norad_id": 34114,
        "name": "COSMOS 2251 DEB",
        "group": "cosmos-2251-debris",
        "lat": 19.78353089147724,
        "lon": -136.47817256973562,
        "alt_km": 718.4420308987819,
        "timestamp": "2025-12-09T18:55:17.625377+00:00",
        "meta_object_name": "COSMOS 2251 DEB",
        "meta_object_id": "1993-036KK",
        "meta_epoch": "2025-12-09T06:56:55.385088",
        "meta_mean_motion": 14.56302129,
        "meta_eccentricity": 0.0047311,
        "meta_inclination": 74.0585,
        "meta_ra_of_asc_node": 50.3676,
        "meta_arg_of_pericenter": 46.1988,
        "meta_mean_anomaly": 18.2427,
        "meta_ephemeris_type": 0,
        "meta_classification_type": "U",
        "meta_norad_cat_id": 34114,
        "meta_element_set_no": 999,
        "meta_rev_at_epoch": 87751,
        "meta_bstar": 0.0021816,
        "meta_mean_motion_dot": 9.795e-05,
        "meta_mean_motion_ddot": 0,
        "tle_line1": "1 34114U 93036KK  25343.28952992  .00009795  00000+0  21816-2 0  9996",
        "tle_line2": "2 34114  74.0585  50.3676 0047311  46.1988  18.2427 14.56302129877518"
      },
      "geometry": {
        "type": "Point",
        "coordinates": [
          -136.47817256973562,
          19.78353089147724
        ]
      }
    },
    {
      "type": "Feature",
      "properties": {
        "norad_id": 34115,
        "name": "COSMOS 2251 DEB",
        "group": "cosmos-2251-debris",
        "lat": 24.992327354833193,
        "lon": -104.55584320445688,
        "alt_km": 616.2765632294813,
        "timestamp": "2025-12-09T18:55:17.625388+00:00",
        "meta_object_name": "COSMOS 2251 DEB",
        "meta_object_id": "1993-036KL",
        "meta_epoch": "2025-12-09T04:11:52.352736",
        "meta_mean_motion": 14.79398973,
        "meta_eccentricity": 0.00284205,
        "meta_inclination": 74.0066,
        "meta_ra_of_asc_node": 248.9698,
        "meta_arg_of_pericenter": 73.6091,
        "meta_mean_anomaly": 286.8206,
        "meta_ephemeris_type": 0,
        "meta_classification_type": "U",
        "meta_norad_cat_id": 34115,
        "meta_element_set_no": 999,
        "meta_rev_at_epoch": 89359,
        "meta_bstar": 0.0012405206,
        "meta_mean_motion_dot": 9.294e-05,
        "meta_mean_motion_ddot": 0,
        "tle_line1": "1 34115U 93036KL  25343.17491149  .00009294  00000+0  12405-2 0  9995",
        "tle_line2": "2 34115  74.0066 248.9698 0028420  73.6091 286.8206 14.79398973893593"
      },
      "geometry": {
        "type": "Point",
        "coordinates": [
          -104.55584320445688,
          24.992327354833193
        ]
      }
    },
    {
      "type": "Feature",
      "properties": {
        "norad_id": 34116,
        "name": "COSMOS 2251 DEB",
        "group": "cosmos-2251-debris",
        "lat": -74.00125652913067,
        "lon": 101.87272935027656,
        "alt_km": 714.4562450147387,
        "timestamp": "2025-12-09T18:55:17.625398+00:00",
        "meta_object_name": "COSMOS 2251 DEB",
        "meta_object_id": "1993-036KM",
        "meta_epoch": "2025-12-09T12:50:01.838400",
        "meta_mean_motion": 14.52947321,
        "meta_eccentricity": 0.00121143,
        "meta_inclination": 74.04,
        "meta_ra_of_asc_node": 188.8216,
        "meta_arg_of_pericenter": 264.8626,
        "meta_mean_anomaly": 119.8667,
        "meta_ephemeris_type": 0,
        "meta_classification_type": "U",
        "meta_norad_cat_id": 34116,
        "meta_element_set_no": 999,
        "meta_rev_at_epoch": 88440,
        "meta_bstar": 0.0010248658,
        "meta_mean_motion_dot": 4.203e-05,
        "meta_mean_motion_ddot": 0,
        "tle_line1": "1 34116U 93036KM  25343.53474350  .00004203  00000+0  10249-2 0  9990",
        "tle_line2": "2 34116  74.0400 188.8216 0012114 264.8626 119.8667 14.52947321884409"
      },
      "geometry": {
        "type": "Point",
        "coordinates": [
          101.87272935027656,
          -74.00125652913067
        ]
      }
    },
    {
      "type": "Feature",
      "properties": {
        "norad_id": 34117,
        "name": "COSMOS 2251 DEB",
        "group": "cosmos-2251-debris",
        "lat": -52.87882522648055,
        "lon": -168.50278111424913,
        "alt_km": 803.3347791725364,
        "timestamp": "2025-12-09T18:55:17.625408+00:00",
        "meta_object_name": "COSMOS 2251 DEB",
        "meta_object_id": "1993-036KN",
        "meta_epoch": "2025-12-09T11:09:46.873440",
        "meta_mean_motion": 14.39991314,
        "meta_eccentricity": 0.00544426,
        "meta_inclination": 74.0403,
        "meta_ra_of_asc_node": 349.8785,
        "meta_arg_of_pericenter": 67.2323,
        "meta_mean_anomaly": 293.4571,
        "meta_ephemeris_type": 0,
        "meta_classification_type": "U",
        "meta_norad_cat_id": 34117,
        "meta_element_set_no": 999,
        "meta_rev_at_epoch": 88076,
        "meta_bstar": 0.0010533731,
        "meta_mean_motion_dot": 3.351e-05,
        "meta_mean_motion_ddot": 0,
        "tle_line1": "1 34117U 93036KN  25343.46512585  .00003351  00000+0  10534-2 0  9996",
        "tle_line2": "2 34117  74.0403 349.8785 0054442  67.2323 293.4571 14.39991314880766"
      },
      "geometry": {
        "type": "Point",
        "coordinates": [
          -168.50278111424913,
          -52.87882522648055
        ]
      }
    },
    {
      "type": "Feature",
      "properties": {
        "norad_id": 34118,
        "name": "COSMOS 2251 DEB",
        "group": "cosmos-2251-debris",
        "lat": 73.16211966977792,
        "lon": 3.2679397042609333,
        "alt_km": 537.5881912262103,
        "timestamp": "2025-12-09T18:55:17.625419+00:00",
        "meta_object_name": "COSMOS 2251 DEB",
        "meta_object_id": "1993-036KP",
        "meta_epoch": "2025-12-09T12:51:01.999584",
        "meta_mean_motion": 14.93736083,
        "meta_eccentricity": 0.00599671,
        "meta_inclination": 73.9524,
        "meta_ra_of_asc_node": 255.7878,
        "meta_arg_of_pericenter": 86.9463,
        "meta_mean_anomaly": 88.367,
        "meta_ephemeris_type": 0,
        "meta_classification_type": "U",
        "meta_norad_cat_id": 34118,
        "meta_element_set_no": 999,
        "meta_rev_at_epoch": 89128,
        "meta_bstar": 0.002764188,
        "meta_mean_motion_dot": 0.00030423,
        "meta_mean_motion_ddot": 0,
        "tle_line1": "1 34118U 93036KP  25343.53543981  .00030423  00000+0  27642-2 0  9997",
        "tle_line2": "2 34118  73.9524 255.7878 0059967  86.9463  88.3670 14.93736083891287"
      },
      "geometry": {
        "type": "Point",
        "coordinates": [
          3.2679397042609333,
          73.16211966977792
        ]
      }
    },
    {
      "type": "Feature",
      "properties": {
        "norad_id": 34120,
        "name": "COSMOS 2251 DEB",
        "group": "cosmos-2251-debris",
        "lat": 67.8078348946683,
        "lon": -93.93853336691018,
        "alt_km": 770.8674554186127,
        "timestamp": "2025-12-09T18:55:17.625430+00:00",
        "meta_object_name": "COSMOS 2251 DEB",
        "meta_object_id": "1993-036KR",
        "meta_epoch": "2025-12-09T10:48:34.286976",
        "meta_mean_motion": 13.98678438,
        "meta_eccentricity": 0.01818141,
        "meta_inclination": 73.9916,
        "meta_ra_of_asc_node": 221.918,
        "meta_arg_of_pericenter": 50.3404,
        "meta_mean_anomaly": 121.9975,
        "meta_ephemeris_type": 0,
        "meta_classification_type": "U",
        "meta_norad_cat_id": 34120,
        "meta_element_set_no": 999,
        "meta_rev_at_epoch": 85934,
        "meta_bstar": 0.00058834419,
        "meta_mean_motion_dot": 9.5e-06,
        "meta_mean_motion_ddot": 0,
        "tle_line1": "1 34120U 93036KR  25343.45039684  .00000950  00000+0  58834-3 0  9991",
        "tle_line2": "2 34120  73.9916 221.9180 0181814  50.3404 121.9975 13.98678438859349"
      },
      "geometry": {
        "type": "Point",
        "coordinates": [
          -93.93853336691018,
          67.8078348946683
        ]
      }
    }
  ]
}